FENGYUN 1C DEB          
1 30533U 99025AJX 17345.85691292  .00000911  00000-0  41652-3 0  9993
2 30533  98.9183  38.3331 0134733 348.0486  69.9693 14.19287233561441
